C/2019 F2 (ATLAS),e,19.2930,175.4132,11.6423,16.59812,0.0145752,0.86469427,22.2345,11/11.0/2023,2000,g 12.0,4.0
# From MPEC 2021-P47
A/2019 G2,e,159.2177,208.1665,82.6195,416.9130,0.0001158,0.99449333,0.0000,12/07.9854/2019,2000,g 16.5,2.0
# From MPEC 2022-VC5
A/2019 G3,e,156.8041,49.9120,161.8757,17.18599,0.0138338,0.83451489,24.9340,11/11.0/2023,2000,g 17.1,2.0
# From MPC114607
P/2019 GG21 (PANSTARRS),e,6.0866,340.5610,208.5800,7.467826,0.0482962,0.47178497,79.5040,11/11.0/2023,2000,g 12.0,4.0
# From MPEC 2022-M21
C/2019 H1 (NEOWISE),e,104.4150,269.2888,19.3190,243.2920,0.0002597,0.99242210,0.0000,04/27.8749/2019,2000,g 15.5,4.0
# From MPEC 2023-A50
C/2019 J1 (Lemmon),e,24.5345,98.1870,167.7065,67.85769,0.0017632,0.96336798,2.9601,11/11.0/2023,2000,g 12.0,4.0
# From MPEC 2021-R75
C/2019 J2 (Palomar),e,5.2605,25.5373,98.6806,160.9470,0.0004827,0.98930220,0.0000,07/20.3174/2019,2000,g 13.0,4.0
# From MPC117071
C/2019 J3 (ATLAS),h,08/02.4932/2019,131.3294,270.6260,16.5869,1.000522,2.368509,2000,13.5,4.0
# From MPEC 2022-M21
C/2019 JU6 (ATLAS),h,06/02.2742/2019,148.3310,21.7648,94.9635,1.000088,2.041446,2000,14.5,4.0
# From MPEC 2022-O08
C/2019 K1 (ATLAS),e,87.0321,73.3222,265.7342,6670,0.0000018,0.99969789,0.0000,02/12.3997/2020,2000,g 10.0,4.0
# From MPC119997
C/2019 K4 (Ye),e,105.2970,180.1701,139.9276,1448,0.0000179,0.99843111,0.0000,06/15.4214/2019,2000,g 12.5,4.0
# From MPEC 2021-P47
C/2019 K5 (Young),e,15.3148,177.1848,175.1340,169.5176,0.0004466,0.98793296,0.0000,06/22.7967/2019,2000,g 13.0,4.0
# From MPEC 2021-P47
C/2019 K6 (PANSTARRS),e,132.3794,43.0025,187.5494,1340,0.0000201,0.99707206,0.0000,05/19.7671/2020,2000,g 11.5,4.0
# From MPEC 2023-R20
C/2019 K7 (Smith),h,06/17.6667/2020,103.5202,307.9849,27.4101,1.001005,4.478322,2000,6.0,4.0
# From MPEC 2021-R75
C/2019 K8 (ATLAS),e,93.1169,291.0259,85.3617,2301,0.0000089,0.99861155,0.0000,07/21.4971/2019,2000,g 11.5,4.0
# From MPEC 2023-A50
C/2019 L1 (PANSTARRS),e,9.9764,254.4292,50.0621,9.837111,0.0319450,0.70502861,49.6426,11/11.0/2023,2000,g 13.5,4.0
# From MPC115886
C/2019 L2 (NEOWISE),e,152.2060,12.5515,18.8597,25.08190,0.0078463,0.93516322,13.2107,11/11.0/2023,2000,g 16.0,4.0
# From MPEC 2023-HD1
P/2019 LD2 (ATLAS),e,11.6123,179.5233,118.9793,5.208025,0.0829267,0.12672667,112.3446,11/11.0/2023,2000,g 12.0,4.0
# From MPEC 2023-R20
C/2019 L3 (ATLAS),h,01/09.7470/2022,48.3459,290.7614,171.6404,1.002342,3.554627,2000,4.5,4.0
# From MPEC 2020-K19
P/2019 LM4 (Palomar),e,36.4154,72.8374,68.2837,5.705487,0.0723211,0.58512177,116.2211,11/11.0/2023,2000,g  9.5,4.0
# From MPC118095
C/2019 LB7 (Kleyna),e,164.2904,3.9009,336.6281,34.77843,0.0048055,0.92828759,8.1245,11/11.0/2023,2000,g 17.0,4.0
# From MPEC 2022-O08
P/2019 M2 (ATLAS),e,12.2695,307.5902,332.5598,3.029406,0.1869252,0.64729703,299.7773,11/11.0/2023,2000,g 21.2,4.0
# From MPC118095
C/2019 M3 (ATLAS),e,99.5430,154.9530,87.9096,5235,0.0000026,0.99953697,0.0000,12/31.5674/2018,2000,g 12.2,4.0
# From MPEC 2023-JA2
C/2019 M4 (TESS),h,09/12.0388/2019,65.6787,52.6491,260.3738,1.003077,9.189298,2000,5.0,4.0
# From MPEC 2023-C45
C/2019 N1 (ATLAS),e,82.4375,13.5677,193.3940,1306,0.0000209,0.99869458,0.0000,12/01.0698/2020,2000,g  7.5,4.0
# From MPEC 2023-CD8
A/2019 N2,e,89.3645,276.1596,347.1782,1527,0.0000165,0.99872527,0.0000,08/22.7018/2019,2000,g 12.5,2.0
# From MPEC 2022-A21
C/2019 NJ3 (Lemmon),h,10/22.7685/2020,99.4037,142.4787,246.8964,1.001965,4.363580,2000,9.0,4.0
# From MPEC 2023-SQ0
A/2019 O2,e,93.3123,48.2577,129.6214,58.16907,0.0022216,0.83354300,0.4846,11/11.0/2023,2000,g  9.5,2.0
# From MPEC 2023-SQ0
C/2019 O3 (Palomar),h,03/09.6692/2021,89.8148,300.4375,60.1340,1.004394,8.821363,2000,3.5,4.0
# From MPEC 2021-P47
A/2019 O4,e,15.0930,354.9276,61.9165,33.29802,0.0051295,0.89037501,7.0233,11/11.0/2023,2000,g 15.5,2.0
# From MPEC 2023-A50
C/2019 Q1 (Lemmon),h,07/21.0903/2020,155.7316,42.4560,56.2247,1.001285,5.004495,2000,8.5,4.0
# From MPC117072
A/2019 Q2,e,159.0227,188.0249,176.4305,58.18708,0.0022206,0.97828071,0.0000,07/22.3101/2019,2000,g 18.0,2.0
# From MPC117072
P/2019 S2 (PANSTARRS),e,10.4654,93.1882,217.1077,4.744242,0.0953792,0.20530145,164.4391,11/11.0/2023,2000,g 13.5,4.0
# From MPEC 2022-CN4
P/2019 S3 (PANSTARRS),e,8.6945,150.1729,213.0513,3.415234,0.1561613,0.47110522,239.9275,11/11.0/2023,2000,g 18.3,4.0
# From MPEC 2021-S45
C/2019 S4 (Lemmon),e,92.0994,63.1576,71.3704,237.3223,0.0002696,0.98549554,0.0000,04/08.2558/2020,2000,g 11.0,4.0
# From MPEC 2023-N01
A/2019 T1,e,120.8700,6.9447,91.0627,38.82545,0.0040741,0.88975445,4.1965,11/11.0/2023,2000,g 13.0,2.0
# From MPEC 2023-R20
C/2019 T2 (Lemmon),e,111.4558,155.6537,239.4303,5031,0.0000028,0.99947413,0.0000,04/22.6282/2021,2000,g  9.0,4.0
# From MPEC 2023-UR6
C/2019 T3 (ATLAS),e,121.8388,139.5324,112.4564,3423,0.0000049,0.99826086,0.0000,03/04.3009/2021,2000,g  6.8,4.0
# From MPEC 2023-V39
C/2019 T4 (ATLAS),e,53.6313,199.9380,351.1469,914.6773,0.0000356,0.99536327,0.0000,06/08.8086/2022,2000,g  5.0,4.0
# From MPEC 2021-P47
P/2019 T5 (ATLAS),e,33.4881,247.6159,189.5742,7.999338,0.0435635,0.80973118,68.0328,11/11.0/2023,2000,g 15.0,4.0
# From MPEC 2021-P47
P/2019 T6 (PANSTARRS),e,18.6974,71.2536,328.9878,5.438944,0.0777020,0.62308929,113.6868,11/11.0/2023,2000,g 15.5,4.0
# From MPC118096
P/2019 U4 (PANSTARRS),e,11.6991,200.0210,181.0307,3.519888,0.1492488,0.47602956,225.8015,11/11.0/2023,2000,g 19.0,4.0
# From MPEC 2023-R20
C/2019 U5 (PANSTARRS),h,03/29.7627/2023,113.5172,2.6357,181.4798,1.001198,3.624027,2000,4.5,4.0
# From MPEC 2022-H04
C/2019 U6 (Lemmon),e,60.9679,235.7846,329.5309,327.0352,0.0001667,0.99721072,0.0000,06/18.3182/2020,2000,g 10.0,4.0
# From MPEC 2022-N37
C/2019 V1 (Borisov),e,61.9233,83.1541,51.1681,1668,0.0000145,0.99814511,0.0000,07/16.6202/2020,2000,g 11.0,4.0
# From MPEC 2022-L66
P/2019 V2 (Groeller),e,11.8079,189.1816,335.6839,7.496931,0.0480152,0.33119600,53.7818,11/11.0/2023,2000,g 10.0,4.0
# From MPEC 2023-A50
P/2019 W1 (PANSTARRS),e,23.4759,35.3767,18.7613,4.548858,0.1015899,0.26726411,167.2271,11/11.0/2023,2000,g 12.9,4.0
# From MPEC 2021-P47
P/2019 X1 (Pruyne),e,10.2505,43.6793,36.8184,6.174967,0.0642321,0.30386314,100.9898,11/11.0/2023,2000,g 10.4,4.0
# From MPEC 2020-C98
P/2019 X2 (Pan-STARRS),e,15.8949,250.8387,213.4475,3.636354,0.1421363,0.49993764,203.5712,11/11.0/2023,2000,g 18.0,4.0
# From MPC119999
C/2019 Y1 (ATLAS),e,73.3844,31.5445,57.9150,86.93006,0.0012160,0.99046949,0.0000,03/16.2518/2020,2000,g 13.7,4.0
# From MPEC 2020-C98
P/2019 Y3 (Catalina),e,24.6040,139.3079,2.5848,3.013923,0.1883674,0.69114222,269.9192,11/11.0/2023,2000,g 18.5,4.0
# From MPEC 2022-YN2
C/2019 Y4 (ATLAS),e,45.1492,120.6938,177.4498,351.0789,0.0001498,0.99927128,0.0000,05/30.7240/2020,2000,g 11.8,6.0
# From MPEC 2020-L06
C/2019 Y4-A (ATLAS),h,05/30.7543/2020,45.5904,121.0566,177.2833,1.001417,0.253993,2000,11.6,6.0
# From MPEC 2023-J29
C/2019 Y4-B (ATLAS),h,05/30.7301/2020,45.2795,120.8003,177.3938,1.000015,0.255306,2000,12.1,6.0
# From MPEC 2020-L06
C/2019 Y4-C (ATLAS),h,05/30.7073/2020,45.3730,120.7833,177.3166,1.002143,0.255065,2000,12.7,6.0
# From MPEC 2020-L06
C/2019 Y4-D (ATLAS),e,45.4194,121.1547,177.4551,68.33411,0.0017448,0.99627739,0.0000,05/30.8315/2020,2000,g 12.5,6.0
# From MPEC 2023-A50
C/2019 Y5 (PANSTARRS),e,82.7620,51.7510,303.5851,734.6118,0.0000495,0.99329877,0.0000,08/17.6985/2019,2000,g 11.0,4.0
# From MPEC 2023-A50
A/2020 A1,e,149.0351,119.1714,302.4655,25.58341,0.0076167,0.93486130,10.9685,11/11.0/2023,2000,g 18.0,2.0
# From MPEC 2022-YN2
C/2020 A2 (Iwamoto),e,120.5942,286.2697,68.0602,1289,0.0000213,0.99924444,0.0000,01/08.4029/2020,2000,g 13.5,4.0
# From MPEC 2023-A50
C/2020 A3 (ATLAS),h,06/28.8167/2019,146.6564,120.8050,268.3368,1.000531,5.757658,2000,8.0,4.0
# From MPEC 2022-P91
P/2020 A4 (PANSTARRS-Lemmon),e,24.9911,312.3654,144.7725,8.194911,0.0420134,0.65420696,60.8643,11/11.0/2023,2000,g 15.0,4.0
# From MPEC 2020-N08
A/2020 B1,e,18.5205,309.9354,154.7251,51.51832,0.0026654,0.96623787,3.7725,11/11.0/2023,2000,g 21.0,2.0
# From MPEC 2020-HN5
C/2020 B2 (Lemmon),e,55.7532,354.2880,143.5991,67.66719,0.0017707,0.95921350,2.4513,11/11.0/2023,2000,g 10.0,4.0
# From MPEC 2022-N37
C/2020 B3 (Rankin),e,20.7090,185.8375,324.8870,934.9811,0.0000345,0.99643453,0.0000,10/19.5957/2019,2000,g 13.0,4.0
# From MPEC 2023-KD6
P/2020 B4 (Sheppard),e,11.6085,185.9774,342.0107,7.966917,0.0438297,0.19196587,31.6697,11/11.0/2023,2000,g 10.5,4.0
# From MPEC 2023-V39
C/2020 F2 (ATLAS),h,07/14.3671/2022,163.5892,250.2981,48.3090,1.005098,8.815892,2000,4.5,4.0
# From MPEC 2021-O56
C/2020 F3 (NEOWISE),e,29.1015,61.0826,37.3063,361.8133,0.0001432,0.99918764,0.0000,07/04.0201/2020,2000,g  7.5,5.2
# From MPEC 2023-V39
C/2020 F5 (MASTER),e,52.2058,350.5000,310.6818,172.9536,0.0004333,0.97498882,0.0000,03/17.2536/2021,2000,g  6.5,3.2
# From MPEC 2020-L06
C/2020 F6 (PANSTARRS),e,174.5830,207.9026,344.5034,388.6693,0.0001286,0.99098739,0.0000,04/11.5938/2020,2000,g 14.5,2.8
# From MPEC 2023-J95
C/2020 F7 (Lemmon),e,93.9542,321.8601,227.9470,562.0147,0.0000740,0.99051218,0.0000,11/13.6405/2021,2000,g  7.0,4.0
# From MPEC 2023-J29
C/2020 F8 (SWAN),h,05/27.0769/2020,110.5998,259.8530,68.0758,1.000166,0.429718,2000,10.0,4.0
# From MPEC 2020-L06
P/2020 G1 (Pimentel),e,18.5096,240.1070,207.6160,3.607978,0.1438164,0.86056286,191.7193,11/11.0/2023,2000,g 17.0,4.0
# From MPEC 2022-YB4
C/2020 H2 (Pruyne),e,124.8679,277.6689,26.6460,187.4317,0.0003841,0.99556981,0.0000,04/27.7988/2020,2000,g 14.0,3.2
# From MPEC 2020-HM1
C/2020 H3 (Wierzchos),p,06/05.7162/2020,62.5292,30.4456,2.300288,270.6227,2000,13.5,4.0
# From MPEC 2020-L06
C/2020 H4 (Leonard),e,84.4995,307.6270,117.5121,47.82453,0.0029801,0.98066918,0.0000,08/29.6280/2020,2000,g 15.0,3.2
# From MPEC 2023-N01
C/2020 H5 (Robinson),e,70.2565,210.6277,326.3141,4183,0.0000036,0.99776706,0.0000,12/10.4152/2020,2000,g  5.0,4.0
# From MPEC 2023-SQ0
C/2020 H6 (ATLAS),e,79.9778,213.7210,20.2769,4623,0.0000031,0.99898322,0.0000,09/30.4392/2021,2000,g  8.0,3.2
# From MPEC 2020-KB7
